GSAT0101 (PRN E11)      
1 37846U 11060A   21028.20075555 -.00000038  00000-0  00000-0 0  9990
2 37846  56.7643  35.1154 0003936 318.4547  41.5548  1.70475280 57602
GSAT0102 (PRN E12)      
1 37847U 11060B   21028.38700111 -.00000038  00000-0  00000-0 0  9993
2 37847  56.7637  35.1098 0005739 305.2184 215.2778  1.70475436 57616
GSAT0103 (PRN E19)      
1 38857U 12055A   21028.24230419  .00000018  00000-0  00000-0 0  9991
2 38857  55.0183 155.5948 0002223 244.3403 115.5871  1.70473600 51643
GSAT0104 (PRN E20)      
1 38858U 12055B   21028.17673152  .00000018  00000-0  00000-0 0  9999
2 38858  55.0191 155.5962 0000975 234.5519 125.3893  1.70473518 51641
GSAT0201 (PRN E18)      
1 40128U 14050A   21029.24315920 -.00000079  00000-0  00000+0 0  9991
2 40128  50.5230 352.3707 1651807 106.7305 272.0104  1.85519154 43809
GSAT0202 (PRN E14)      
1 40129U 14050B   21027.88905548 -.00000084  00000-0  00000-0 0  9998
2 40129  50.5567 351.4691 1649344 107.4987 271.1715  1.85519869 44006
GSAT0203 (PRN E26)      
1 40544U 15017A   21027.39535457 -.00000040  00000-0  00000-0 0  9999
2 40544  56.5572  35.2403 0005488 264.7451  95.2343  1.70474962 35677
GSAT0204 (PRN E22)      
1 40545U 15017B   21028.93602785 -.00000039  00000-0  00000+0 0  9997
2 40545  56.5646  35.2145 0003251 248.5888 111.4135  1.70475094 36367
GSAT0205 (PRN E24)      
1 40889U 15045A   21028.59149745  .00000039  00000-0  00000-0 0  9993
2 40889  55.9771 275.8988 0005951  15.7172 344.3944  1.70474710 33508
GSAT0206 (PRN E30)      
1 40890U 15045B   21027.05125369  .00000034  00000-0  00000-0 0  9996
2 40890  55.9785 275.9376 0004131   9.0021 351.0945  1.70474807 33508
GSAT0209 (PRN E09)      
1 41174U 15079A   21024.29183904  .00000024  00000-0  00000+0 0  9999
2 41174  55.0330 155.4031 0002851 323.7064  36.2290  1.70473671 31771
GSAT0208 (PRN E08)      
1 41175U 15079B   21028.61763320  .00000018  00000-0  00000+0 0  9999
2 41175  55.0317 155.2830 0002197 324.0126  35.9244  1.70473597 31859
GSAT0211 (PRN E02)      
1 41549U 16030A   21026.97938854  .00000034  00000-0  00000-0 0  9994
2 41549  56.1216 275.8195 0004547 342.4989  17.5745  1.70474535 29132
GSAT0210 (PRN E01)      
1 41550U 16030B   21027.85884428  .00000038  00000-0  00000-0 0  9995
2 41550  56.1206 275.7968 0003054 321.9364  38.1341  1.70474600 29146
GSAT0207 (PRN E07)      
1 41859U 16069A   21028.10406449  .00000018  00000-0  00000-0 0  9999
2 41859  54.6911 155.6047 0002622 300.8897  59.0344  1.70473588 26040
GSAT0212 (PRN E03)      
1 41860U 16069B   21029.13067780  .00000018  00000-0  00000+0 0  9995
2 41860  54.6897 155.5748 0002021 345.6333  14.3142  1.70473654 26153
GSAT0213 (PRN E04)      
1 41861U 16069C   21028.32320617  .00000018  00000-0  00000-0 0  9998
2 41861  54.6918 155.6016 0002119 260.0396  99.8869  1.70473625 26145
GSAT0214 (PRN E05)      
1 41862U 16069D   21027.88368496  .00000018  00000-0  00000-0 0  9996
2 41862  54.6893 155.6089 0001299 266.2229  93.7117  1.70473714 26125
GSAT0215 (PRN E21)      
1 43055U 17079A   21027.78774826  .00000038  00000-0  00000-0 0  9993
2 43055  56.0960 275.6373 0002400 326.8986  33.1783  1.70473759 19464
GSAT0216 (PRN E25)      
1 43056U 17079B   21028.08034847  .00000039  00000-0  00000+0 0  9990
2 43056  56.0960 275.6289 0003838 305.4486  54.6083  1.70473888 19458
GSAT0217 (PRN E27)      
1 43057U 17079C   21029.47362280  .00000040  00000-0  00000+0 0  9992
2 43057  56.0930 275.5909 0003962 320.0528  40.0113  1.70473777 19496
GSAT0218 (PRN E31)      
1 43058U 17079D   21029.10703535  .00000040  00000-0  00000+0 0  9995
2 43058  56.0923 275.5983 0004056 298.4387  61.6140  1.70473847 19483
GSAT0221 (PRN E15)      
1 43564U 18060A   21029.00547630 -.00000038  00000-0  00000+0 0  9997
2 43564  56.9450  34.8818 0006252 277.2810  82.6838  1.70475895 15677
GSAT0222 (PRN E33)      
1 43565U 18060B   21028.63873675 -.00000038  00000-0  00000-0 0  9998
2 43565  56.9453  34.8916 0005978 283.5272  76.4435  1.70475947 15702
GSAT0219 (PRN E36)      
1 43566U 18060C   21028.27260041 -.00000038  00000-0  00000-0 0  9996
2 43566  56.9460  34.9034 0005671 279.6971  80.2775  1.70475793 15670
GSAT0220 (PRN E13)      
1 43567U 18060D   21029.07905442 -.00000038  00000-0  00000+0 0  9996
2 43567  56.9465  34.8820 0005824 280.3666  79.6034  1.70475850 15661
